COMMENT,ORIGINATOR,NORAD_CAT_ID,OBJECT_NAME,OBJECT_TYPE,CLASSIFICATION_TYPE,INTLDES,EPOCH,EPOCH_MICROSECONDS,MEAN_MOTION,ECCENTRICITY,INCLINATION,RA_OF_ASC_NODE,ARG_OF_PERICENTER,MEAN_ANOMALY,EPHEMERIS_TYPE,ELEMENT_SET_NO,REV_AT_EPOCH,BSTAR,MEAN_MOTION_DOT,MEAN_MOTION_DDOT,FILE,TLE_LINE0,TLE_LINE1,TLE_LINE2,OBJECT_ID,OBJECT_NUMBER,SEMIMAJOR_AXIS,PERIOD,APOGEE,PERIGEE
"GENERATED VIA SPACETRACK.ORG API","JSPOC","39504","TDRS 12","PAYLOAD","U","14004A","2016-01-09 17:58:34","939200","1.00262926","0.0005417","6.4886","336.9653","300.0181","60.0674","0","999","723","0","-2.61e-06","0","1978408","0 TDRS 12","1 39504U 14004A   16009.74901550 -.00000261  00000-0  00000+0 0  9996","2 39504   6.4886 336.9653 0005417 300.0181  60.0674  1.00262926  7233","2014-004A","39504","42167.215","1436.223","35811.922","35766.238"
"GENERATED VIA SPACETRACK.ORG API","JSPOC","39504","TDRS 12","PAYLOAD","U","14004A","2016-01-09 17:58:34","934880","1.00262925","0.0005417","6.4886","336.9653","299.8501","60.2353","0","999","606","0","-2.61e-06","0","1978726","0 TDRS 12","1 39504U 14004A   16009.74901545 -.00000261 +00000-0 +00000-0 0  9991","2 39504 006.4886 336.9653 0005417 299.8501 060.2353 01.00262925006069","2014-004A","39504","42167.215","1436.223","35811.922","35766.238"
"GENERATED VIA SPACETRACK.ORG API","JSPOC","39504","TDRS 12","PAYLOAD","U","14004A","2016-01-09 17:58:34","963392","1.00262922","0.000541","6.4886","336.9654","300.2385","59.8472","0","999","606","0","-2.61e-06","0","1979034","0 TDRS 12","1 39504U 14004A   16009.74901578 -.00000261 +00000-0 +00000-0 0  9997","2 39504 006.4886 336.9654 0005410 300.2385 059.8472 01.00262922006063","2014-004A","39504","42167.216","1436.223","35811.894","35766.269"
"GENERATED VIA SPACETRACK.ORG API","JSPOC","25365","COSMOS 2354","PAYLOAD","U","98036C","2016-01-09 17:59:00","505824","12.20828215","0.035234","82.5835","81.296","325.8783","157.8832","0","999","78297","0.00034224","5.1e-07","0","1978726","0 COSMOS 2354","1 25365U 98036C   16009.74931141 +.00000051 +00000-0 +34224-3 0  9997","2 25365 082.5835 081.2960 0352340 325.8783 157.8832 12.20828215782971","1998-036C","25365","7967.073","117.952","1869.649","1308.226"
"GENERATED VIA SPACETRACK.ORG API","JSPOC","1314","OPS 4682 (SNAPSHOT)","PAYLOAD","U","65027A","2016-01-09 17:59:06","400896","12.91744616","0.0031182","90.306","270.1846","144.8421","275.0232","0","999","13895","-2.4772e-05","1e-08","0","1978726","0 OPS 4682 (SNAPSHOT)","1  1314U 65027A   16009.74937964 +.00000001 +00000-0 -24772-4 0  9992","2  1314 090.3060 270.1846 0031182 144.8421 275.0232 12.91744616138954","1965-027A","1314","7672.744","111.477","1318.534","1270.684"
"GENERATED VIA SPACETRACK.ORG API","JSPOC","22017","COSMOS 2196","PAYLOAD","U","92040A","2016-01-09 17:59:41","322048","2.00982945","0.7423216","61.8069","264.783","214.0877","61.5303","0","999","14816","-0.0031237","-1.234e-05","0","1978369","0 COSMOS 2196","1 22017U 92040A   16009.74978382 -.00001234  00000-0 -31237-2 0  9991","2 22017  61.8069 264.7830 7423216 214.0877  61.5303  2.00982945148165","1992-040A","22017","26523.390","716.478","39834.140","456.369"
"GENERATED VIA SPACETRACK.ORG API","JSPOC","35943","COMSATBW-1","PAYLOAD","U","09054B","2016-01-09 17:59:49","530048","1.00273934","0.0002574","0.0758","67.9524","231.391","142.3154","0","999","2309","0","2.9e-07","0","1978726","0 COMSATBW-1","1 35943U 09054B   16009.74987882 +.00000029 +00000-0 +00000-0 0  9992","2 35943 000.0758 067.9524 0002574 231.3910 142.3154 01.00273934023099","2009-054B","35943","42164.129","1436.066","35796.847","35775.141"
"GENERATED VIA SPACETRACK.ORG API","JSPOC","40275","YAOGAN 22","PAYLOAD","U","14063A","2016-01-09 18:00:13","118976","13.15304778","0.0006266","100.3661","127.1752","183.5692","176.5382","0","999","5869","0","-4.4e-07","0","1978287","0 YAOGAN 22","1 40275U 14063A   16009.75015184 -.00000044  00000-0  00000+0 0  9997","2 40275 100.3661 127.1752 0006266 183.5692 176.5382 13.15304778 58695","2014-063A","40275","7580.844","109.480","1207.459","1197.959"
"GENERATED VIA SPACETRACK.ORG API","JSPOC","39770","SPROUT","PAYLOAD","U","14029E","2016-01-09 18:00:26","448768","14.84723922","0.0008689","97.8722","108.8835","241.1264","118.9092","0","999","8827","0.00022591","1.861e-05","0","1978726","0 SPROUT","1 39770U 14029E   16009.75030612 +.00001861 +00000-0 +22591-3 0  9990","2 39770 097.8722 108.8835 0008689 241.1264 118.9092 14.84723922088274","2014-029E","39770","6992.589","96.987","620.530","608.378"
"GENERATED VIA SPACETRACK.ORG API","JSPOC","14624","COSMOS 1531","PAYLOAD","U","84003A","2016-01-09 18:01:16","934016","13.72115132","0.0018454","82.9316","71.8978","247.6324","252.2011","0","999","60178","4.9911e-05","6e-07","0","1978726","0 COSMOS 1531","1 14624U 84003A   16009.75089044 +.00000060 +00000-0 +49911-4 0  9999","2 14624 082.9316 071.8978 0018454 247.6324 252.2011 13.72115132601789","1984-003A","14624","7370.124","104.947","1005.590","978.388"
"GENERATED VIA SPACETRACK.ORG API","JSPOC","22783","TEMISAT","PAYLOAD","U","93055B","2016-01-09 18:01:37","401312","13.83667031","0.0024248","82.5514","81.5302","100.1689","260.2208","0","999","12884","2.8812e-05","4.7e-07","0","1978726","0 TEMISAT","1 22783U 93055B   16009.75112733 +.00000047 +00000-0 +28812-4 0  9995","2 22783 082.5514 081.5302 0024248 100.1689 260.2208 13.83667031128844","1993-055B","22783","7329.045","104.071","968.682","933.139"
"GENERATED VIA SPACETRACK.ORG API","JSPOC","13120","COSMOS 1346","PAYLOAD","U","82027A","2016-01-09 18:01:42","307968","15.564429","0.0001931","81.1316","93.5097","315.7498","44.3598","0","999","85131","0.00020198","0.00014315","0","1978726","0 COSMOS 1346","1 13120U 82027A   16009.75118412 +.00014315 +00000-0 +20198-3 0  9998","2 13120 081.1316 093.5097 0001931 315.7498 044.3598 15.56442900851310","1982-027A","13120","6776.098","92.518","399.272","396.655"
"GENERATED VIA SPACETRACK.ORG API","JSPOC","21130","COSMOS 2135","PAYLOAD","U","91013A","2016-01-09 18:02:00","705120","13.78474911","0.0067149","82.8264","223.383","72.0648","335.9684","0","999","25087","4.645e-05","6.4e-07","0","1978726","0 COSMOS 2135","1 21130U 91013A   16009.75139705 +.00000064 +00000-0 +46450-4 0  9997","2 21130 082.8264 223.3830 0067149 072.0648 335.9684 13.78474911250879","1991-013A","21130","7347.438","104.463","1018.640","919.965"
"GENERATED VIA SPACETRACK.ORG API","JSPOC","40001","COSMOS 2500 (GLONASS)","PAYLOAD","U","14032A","2016-01-09 18:02:13","644384","2.13103055","0.0007319","64.9861","82.4974","210.3844","174.2736","0","999","1223","0","0","0","1978284","0 COSMOS 2500 (GLONASS)","1 40001U 14032A   16009.75154681  .00000000  00000-0  00000+0 0  9997","2 40001  64.9861  82.4974 0007319 210.3844 174.2736  2.13103055 12235","2014-032A","40001","25507.940","675.729","19148.474","19111.135"
"GENERATED VIA SPACETRACK.ORG API","JSPOC","37387","RESOURCESAT 2","PAYLOAD","U","11015A","2016-01-09 18:02:22","679232","14.2162087","0.0003475","98.7274","86.1821","63.6017","296.5512","0","999","24516","3.3185e-05","2.9e-07","0","1978330","0 RESOURCESAT 2","1 37387U 11015A   16009.75165138  .00000029  00000-0  33185-4 0  9993","2 37387  98.7274  86.1821 0003475  63.6017 296.5512 14.21620870245164","2011-015A","37387","7198.013","101.292","822.379","817.377"
"GENERATED VIA SPACETRACK.ORG API","JSPOC","16368","COSMOS 1709","PAYLOAD","U","85116A","2016-01-09 18:02:27","510720","13.74422229","0.0033817","82.9444","53.175","310.3269","187.2703","0","999","50724","4.8652e-05","6.1e-07","0","1978726","0 COSMOS 1709","1 16368U 85116A   16009.75170730 +.00000061 +00000-0 +48652-4 0  9997","2 16368 082.9444 053.1750 0033817 310.3269 187.2703 13.74422229507246","1985-116A","16368","7361.874","104.771","1008.634","958.843"
"GENERATED VIA SPACETRACK.ORG API","JSPOC","39173","BREEZE-M R/B","ROCKET BODY","U","13026B","2016-01-09 18:02:33","646848","1.10513744","0.7628278","28.4546","316.2527","320.3162","3.7622","0","999","1051","0","-3.71e-06","0","1978563","0 BREEZE-M R/B","1 39173U 13026B   16009.75177832 -.00000371  00000-0  00000+0 0  9992","2 39173  28.4546 316.2527 7628278 320.3162   3.7622  1.10513744 10510","2013-026B","39173","39517.638","1303.005","63284.656","2994.350"
"GENERATED VIA SPACETRACK.ORG API","JSPOC","39443","QUBESCOUT-S1","PAYLOAD","U","13066AD","2016-01-09 18:02:55","810176","14.92266953","0.0026438","97.7178","80.9557","159.4835","200.7452","0","999","11406","0.00027941","2.813e-05","0","1978726","0 QUBESCOUT-S1","1 39443U 13066AD  16009.75203484 +.00002813 +00000-0 +27941-3 0  9998","2 39443 097.7178 080.9557 0026438 159.4835 200.7452 14.92266953114065","2013-066AD","39443","6969.005","96.497","609.295","572.446"
"GENERATED VIA SPACETRACK.ORG API","JSPOC","22980","H-2 R/B","ROCKET BODY","U","94007C","2016-01-09 18:03:01","558368","2.88698353","0.6802233","28.4677","245.774","89.9812","341.4133","0","999","21372","0.0010551","2.844e-05","0","1978397","0 H-2 R/B","1 22980U 94007C   16009.75210137  .00002844  00000-0  10551-2 0  9995","2 22980  28.4677 245.7740 6802233  89.9812 341.4133  2.88698353213723","1994-007C","22980","20833.982","498.790","28627.608","284.087"
"GENERATED VIA SPACETRACK.ORG API","JSPOC","14725","RADUGA 14","PAYLOAD","U","84016A","2016-01-09 18:03:13","218912","1.00298532","0.0002171","14.4641","346.4109","183.3526","288.1452","0","999","7988","0","-1.39e-06","0","1978726","0 RADUGA 14","1 14725U 84016A   16009.75223633 -.00000139 +00000-0 +00000-0 0  9999","2 14725 014.4641 346.4109 0002171 183.3526 288.1452 01.00298532079889","1984-016A","14725","42157.235","1435.713","35788.252","35769.948"
